start=new Date('2023-02-16T00:00:00.000Z').valueOf();
sats=[{"OBJECT_NAME":"STARLINK-2330","CLASSIFICATION_TYPE":"U","TLE_LINE2":"2 47874  53.0530 195.5513 0000929  94.2679 265.8416 15.06403168108458","PERIOD":"95.592","EPOCH":"2023-02-15T16:23:38.065344","MEAN_ELEMENT_THEORY":"SGP4","COUNTRY_CODE":"US","DECAY_DATE":null,"RCS_SIZE":"LARGE","APOAPSIS":"547.847","PERIAPSIS":"546.560","INCLINATION":"53.0530","ELEMENT_SET_NO":"999","LAUNCH_DATE":"2021-03-14","OBJECT_ID":"2021-021Q","MEAN_MOTION_DDOT":"0.0000000000000","BSTAR":"0.00014956000000","NORAD_CAT_ID":"47874","EPHEMERIS_TYPE":"0","MEAN_ANOMALY":"265.8416","TIME_SYSTEM":"UTC","REV_AT_EPOCH":"10845","OBJECT_TYPE":"PAYLOAD","FILE":"3795153","MEAN_MOTION_DOT":"0.00001947","GP_ID":"225550790","ECCENTRICITY":"0.00009290","SEMIMAJOR_AXIS":"6925.339","ARG_OF_PERICENTER":"94.2679","TLE_LINE1":"1 47874U 21021Q   23046.68307946  .00001947  00000-0  14956-3 0  9993","SITE":"AFETR","CENTER_NAME":"EARTH","MEAN_MOTION":"15.06403168","REF_FRAME":"TEME","RA_OF_ASC_NODE":"195.5513"},{"GP_ID":"225551044","ECCENTRICITY":"0.00012260","MEAN_MOTION_DOT":"0.00006218","EPHEMERIS_TYPE":"0","NORAD_CAT_ID":"47875","MEAN_ANOMALY":"273.6523","TIME_SYSTEM":"UTC","BSTAR":"0.00043578000000","OBJECT_TYPE":"PAYLOAD","FILE":"3795153","REV_AT_EPOCH":"10776","MEAN_MOTION":"15.06412222","RA_OF_ASC_NODE":"249.7335","REF_FRAME":"TEME","TLE_LINE1":"1 47875U 21021R   23046.86415431  .00006218  00000-0  43578-3 0  9991","SEMIMAJOR_AXIS":"6925.311","ARG_OF_PERICENTER":"86.4606","CENTER_NAME":"EARTH","SITE":"AFETR","MEAN_ELEMENT_THEORY":"SGP4","DECAY_DATE":null,"COUNTRY_CODE":"US","OBJECT_NAME":"STARLINK-2331","TLE_LINE2":"2 47875  53.0501 249.7335 0001226  86.4606 273.6523 15.06412222107765","CLASSIFICATION_TYPE":"U","PERIOD":"95.591","EPOCH":"2023-02-15T20:44:22.932384","LAUNCH_DATE":"2021-03-14","ELEMENT_SET_NO":"999","MEAN_MOTION_DDOT":"0.0000000000000","OBJECT_ID":"2021-021R","APOAPSIS":"548.025","RCS_SIZE":"LARGE","INCLINATION":"53.0501","PERIAPSIS":"546.327"},{"ARG_OF_PERICENTER":"81.7899","SEMIMAJOR_AXIS":"6925.326","TLE_LINE1":"1 47876U 21021S   23046.91944343  .00002635  00000-0  19566-3 0  9996","SITE":"AFETR","CENTER_NAME":"EARTH","MEAN_MOTION":"15.06407299","REF_FRAME":"TEME","RA_OF_ASC_NODE":"249.4820","BSTAR":"0.00019566000000","NORAD_CAT_ID":"47876","EPHEMERIS_TYPE":"0","MEAN_ANOMALY":"278.3205","TIME_SYSTEM":"UTC","REV_AT_EPOCH":"10724","FILE":"3794733","OBJECT_TYPE":"PAYLOAD","MEAN_MOTION_DOT":"0.00002635","GP_ID":"225520809","ECCENTRICITY":"0.00010170","APOAPSIS":"547.895","RCS_SIZE":"LARGE","PERIAPSIS":"546.487","INCLINATION":"53.0535","ELEMENT_SET_NO":"999","LAUNCH_DATE":"2021-03-14","OBJECT_ID":"2021-021S","MEAN_MOTION_DDOT":"0.0000000000000","CLASSIFICATION_TYPE":"U","TLE_LINE2":"2 47876  53.0535 249.4820 0001017  81.7899 278.3205 15.06407299107249","OBJECT_NAME":"STARLINK-2332","EPOCH":"2023-02-15T22:03:59.912352","PERIOD":"95.592","MEAN_ELEMENT_THEORY":"SGP4","COUNTRY_CODE":"US","DECAY_DATE":null},{"MEAN_MOTION_DOT":"-0.00002049","ECCENTRICITY":"0.00005830","GP_ID":"225550049","REV_AT_EPOCH":"10770","OBJECT_TYPE":"PAYLOAD","FILE":"3795153","BSTAR":"-0.00011867000000","NORAD_CAT_ID":"47877","EPHEMERIS_TYPE":"0","MEAN_ANOMALY":"278.1515","TIME_SYSTEM":"UTC","REF_FRAME":"TEME","RA_OF_ASC_NODE":"249.7204","MEAN_MOTION":"15.06420676","SITE":"AFETR","CENTER_NAME":"EARTH","SEMIMAJOR_AXIS":"6925.285","ARG_OF_PERICENTER":"81.9540","TLE_LINE1":"1 47877U 21021T   23046.86784120 -.00002049  00000-0 -11867-3 0  9993","COUNTRY_CODE":"US","DECAY_DATE":null,"MEAN_ELEMENT_THEORY":"SGP4","PERIOD":"95.591","EPOCH":"2023-02-15T20:49:41.479680","OBJECT_NAME":"STARLINK-2333","CLASSIFICATION_TYPE":"U","TLE_LINE2":"2 47877  53.0545 249.7204 0000583  81.9540 278.1515 15.06420676107709","OBJECT_ID":"2021-021T","MEAN_MOTION_DDOT":"0.0000000000000","ELEMENT_SET_NO":"999","LAUNCH_DATE":"2021-03-14","PERIAPSIS":"546.746","INCLINATION":"53.0545","RCS_SIZE":"LARGE","APOAPSIS":"547.554"},{"GP_ID":"225550297","ECCENTRICITY":"0.00008770","MEAN_MOTION_DOT":"0.00011287","NORAD_CAT_ID":"47878","EPHEMERIS_TYPE":"0","MEAN_ANOMALY":"271.3351","TIME_SYSTEM":"UTC","BSTAR":"0.00077517000000","FILE":"3795153","OBJECT_TYPE":"PAYLOAD","REV_AT_EPOCH":"10750","MEAN_MOTION":"15.06412217","RA_OF_ASC_NODE":"249.6669","REF_FRAME":"TEME","TLE_LINE1":"1 47878U 21021U   23046.87890024  .00011287  00000-0  77517-3 0  9992","ARG_OF_PERICENTER":"88.7739","SEMIMAJOR_AXIS":"6925.311","CENTER_NAME":"EARTH","SITE":"AFETR","MEAN_ELEMENT_THEORY":"SGP4","DECAY_DATE":null,"COUNTRY_CODE":"US","TLE_LINE2":"2 47878  53.0503 249.6669 0000877  88.7739 271.3351 15.06412217107502","CLASSIFICATION_TYPE":"U","OBJECT_NAME":"STARLINK-2335","EPOCH":"2023-02-15T21:05:36.980736","PERIOD":"95.591","LAUNCH_DATE":"2021-03-14","ELEMENT_SET_NO":"999","MEAN_MOTION_DDOT":"0.0000000000000","OBJECT_ID":"2021-021U","RCS_SIZE":"LARGE","APOAPSIS":"547.783","INCLINATION":"53.0503","PERIAPSIS":"546.569"},{"COUNTRY_CODE":"US","DECAY_DATE":null,"MEAN_ELEMENT_THEORY":"SGP4","EPOCH":"2023-02-15T21:00:58.279392","PERIOD":"95.592","TLE_LINE2":"2 47879  53.0514 264.6820 0001196 110.3254 249.7863 15.06408910107670","CLASSIFICATION_TYPE":"U","OBJECT_NAME":"STARLINK-2336","OBJECT_ID":"2021-021V","MEAN_MOTION_DDOT":"0.0000000000000","ELEMENT_SET_NO":"999","LAUNCH_DATE":"2021-03-14","PERIAPSIS":"546.358","INCLINATION":"53.0514","RCS_SIZE":"LARGE","APOAPSIS":"548.015","MEAN_MOTION_DOT":"0.00003139","ECCENTRICITY":"0.00011960","GP_ID":"225551538","REV_AT_EPOCH":"10767","FILE":"3795153","OBJECT_TYPE":"PAYLOAD","BSTAR":"0.00022950000000","EPHEMERIS_TYPE":"0","NORAD_CAT_ID":"47879","MEAN_ANOMALY":"249.7863","TIME_SYSTEM":"UTC","REF_FRAME":"TEME","RA_OF_ASC_NODE":"264.6820","MEAN_MOTION":"15.06408910","SITE":"AFETR","CENTER_NAME":"EARTH","ARG_OF_PERICENTER":"110.3254","SEMIMAJOR_AXIS":"6925.321","TLE_LINE1":"1 47879U 21021V   23046.87567453  .00003139  00000-0  22950-3 0  9998"},{"REF_FRAME":"TEME","RA_OF_ASC_NODE":"259.2093","MEAN_MOTION":"15.06413907","SITE":"AFETR","CENTER_NAME":"EARTH","SEMIMAJOR_AXIS":"6925.306","ARG_OF_PERICENTER":"84.0992","TLE_LINE1":"1 47880U 21021W   23046.98118012  .00002801  00000-0  20675-3 0  9992","MEAN_MOTION_DOT":"0.00002801","GP_ID":"225522066","ECCENTRICITY":"0.00010970","REV_AT_EPOCH":"10711","OBJECT_TYPE":"PAYLOAD","FILE":"3794778","BSTAR":"0.00020675000000","NORAD_CAT_ID":"47880","EPHEMERIS_TYPE":"0","MEAN_ANOMALY":"276.0122","TIME_SYSTEM":"UTC","OBJECT_ID":"2021-021W","MEAN_MOTION_DDOT":"0.0000000000000","ELEMENT_SET_NO":"999","LAUNCH_DATE":"2021-03-14","PERIAPSIS":"546.411","INCLINATION":"53.0512","RCS_SIZE":"LARGE","APOAPSIS":"547.931","COUNTRY_CODE":"US","DECAY_DATE":null,"MEAN_ELEMENT_THEORY":"SGP4","PERIOD":"95.591","EPOCH":"2023-02-15T23:32:53.962368","OBJECT_NAME":"STARLINK-2337","CLASSIFICATION_TYPE":"U","TLE_LINE2":"2 47880  53.0512 259.2093 0001097  84.0992 276.0122 15.06413907107110"},{"ECCENTRICITY":"0.00010210","GP_ID":"225522086","MEAN_MOTION_DOT":"0.00002370","FILE":"3794787","OBJECT_TYPE":"PAYLOAD","REV_AT_EPOCH":"10711","NORAD_CAT_ID":"47881","EPHEMERIS_TYPE":"0","MEAN_ANOMALY":"280.2719","TIME_SYSTEM":"UTC","BSTAR":"0.00017788000000","RA_OF_ASC_NODE":"259.0807","REF_FRAME":"TEME","MEAN_MOTION":"15.06413125","CENTER_NAME":"EARTH","SITE":"AFETR","TLE_LINE1":"1 47881U 21021X   23047.00698082  .00002370  00000-0  17788-3 0  9999","ARG_OF_PERICENTER":"79.8385","SEMIMAJOR_AXIS":"6925.308","DECAY_DATE":null,"COUNTRY_CODE":"US","MEAN_ELEMENT_THEORY":"SGP4","EPOCH":"2023-02-16T00:10:03.142848","PERIOD":"95.591","CLASSIFICATION_TYPE":"U","TLE_LINE2":"2 47881  53.0535 259.0807 0001021  79.8385 280.2719 15.06413125107113","OBJECT_NAME":"STARLINK-2339","MEAN_MOTION_DDOT":"0.0000000000000","OBJECT_ID":"2021-021X","LAUNCH_DATE":"2021-03-14","ELEMENT_SET_NO":"999","INCLINATION":"53.0535","PERIAPSIS":"546.466","APOAPSIS":"547.880","RCS_SIZE":"LARGE"},{"TIME_SYSTEM":"UTC","NORAD_CAT_ID":"47882","EPHEMERIS_TYPE":"0","MEAN_ANOMALY":"277.3041","BSTAR":"0.00066027000000","OBJECT_TYPE":"PAYLOAD","FILE":"3795153","REV_AT_EPOCH":"10787","GP_ID":"225550791","ECCENTRICITY":"0.00016100","MEAN_MOTION_DOT":"0.00009573","TLE_LINE1":"1 47882U 21021Y   23046.84942007  .00009573  00000-0  66027-3 0  9992","SEMIMAJOR_AXIS":"6925.278","ARG_OF_PERICENTER":"82.8131","CENTER_NAME":"EARTH","SITE":"AFETR","MEAN_MOTION":"15.06422904","RA_OF_ASC_NODE":"249.7981","REF_FRAME":"TEME","OBJECT_NAME":"STARLINK-2340","TLE_LINE2":"2 47882  53.0489 249.7981 0001610  82.8131 277.3041 15.06422904107871","CLASSIFICATION_TYPE":"U","PERIOD":"95.591","EPOCH":"2023-02-15T20:23:09.894048","MEAN_ELEMENT_THEORY":"SGP4","DECAY_DATE":null,"COUNTRY_CODE":"US","RCS_SIZE":"LARGE","APOAPSIS":"548.258","INCLINATION":"53.0489","PERIAPSIS":"546.028","LAUNCH_DATE":"2021-03-14","ELEMENT_SET_NO":"999","MEAN_MOTION_DDOT":"0.0000000000000","OBJECT_ID":"2021-021Y"},{"MEAN_ELEMENT_THEORY":"SGP4","DECAY_DATE":null,"COUNTRY_CODE":"US","TLE_LINE2":"2 47883  53.0493 254.6310 0001108  87.5373 272.5743 15.06417748107810","CLASSIFICATION_TYPE":"U","OBJECT_NAME":"STARLINK-2342","EPOCH":"2023-02-15T21:18:13.538016","PERIOD":"95.591","LAUNCH_DATE":"2021-03-14","ELEMENT_SET_NO":"999","MEAN_MOTION_DDOT":"0.0000000000000","OBJECT_ID":"2021-021Z","APOAPSIS":"547.926","RCS_SIZE":"LARGE","INCLINATION":"53.0493","PERIAPSIS":"546.392","ECCENTRICITY":"0.00011080","GP_ID":"225551045","MEAN_MOTION_DOT":"0.00006806","NORAD_CAT_ID":"47883","MEAN_ANOMALY":"272.5743","EPHEMERIS_TYPE":"0","TIME_SYSTEM":"UTC","BSTAR":"0.00047516000000","FILE":"3795153","OBJECT_TYPE":"PAYLOAD","REV_AT_EPOCH":"10781","MEAN_MOTION":"15.06417748","RA_OF_ASC_NODE":"254.6310","REF_FRAME":"TEME","TLE_LINE1":"1 47883U 21021Z   23046.88765669  .00006806  00000-0  47516-3 0  9992","ARG_OF_PERICENTER":"87.5373","SEMIMAJOR_AXIS":"6925.294","CENTER_NAME":"EARTH","SITE":"AFETR"}];
